ONEWEB-0358             
1 49284U 21090F   25220.60790140 -.00000008  00000+0 -52390-4 0  9999
2 49284  87.9299 336.7127 0001865 103.6915 256.4426 13.20772436189290
ONEWEB-0359             
1 49285U 21090G   25220.60474144  .00000010  00000+0 -61415-5 0  9994
2 49285  87.9288 336.7243 0001648 108.6791 251.4521 13.20771272189270
ONEWEB-0360             
1 49286U 21090H   25220.59526329 -.00000012  00000+0 -62268-4 0  9995
2 49286  87.9293 336.7344 0001735 101.3574 258.7755 13.20770218188586
ONEWEB-0361             
1 49287U 21090J   25220.57634121  .00000147  00000+0  33020-3 0  9994
2 49287  87.9294 336.7329 0002035 102.1460 257.9901 13.20771704189034
ONEWEB-0362             
1 49288U 21090K   25220.35714732  .00000026  00000+0  32796-4 0  9994
2 49288  87.9243   7.1770 0001674  91.0171 269.1154 13.19725572185650
ONEWEB-0363             
1 49289U 21090L   25220.59212764  .00000057  00000+0  10708-3 0  9991
2 49289  87.9295 336.7254 0002149 107.9062 252.2306 13.20771317189049
ONEWEB-0364             
1 49290U 21090M   25220.55423263  .00000047  00000+0  82842-4 0  9995
2 49290  87.9289 336.7617 0002033 101.0678 259.0684 13.20773520190175
ONEWEB-0365             
1 49291U 21090N   25219.91172126  .00000001  00000+0 -30419-4 0  9997
2 49291  87.9243   7.2201 0001841  91.6495 268.4848 13.19726085186399
ONEWEB-0366             
1 49292U 21090P   25220.28731208  .00000278  00000+0  71475-3 0  9993
2 49292  87.9081 351.9874 0001845  99.7706 260.3632 13.14504641186459
ONEWEB-0367             
1 49293U 21090Q   25220.28752132  .00000029  00000+0  40307-4 0  9998
2 49293  87.9294 336.7810 0001772  93.2752 266.8584 13.20771504188524
ONEWEB-0368             
1 49294U 21090R   25220.56369992  .00000007  00000+0 -14640-4 0  9996
2 49294  87.9299 336.7619 0002740  95.3300 264.8146 13.20771835189716
ONEWEB-0369             
1 49295U 21090S   25219.90698253  .00000071  00000+0  14552-3 0  9999
2 49295  87.9245   7.2521 0001882  93.1880 266.9468 13.19724846185090
ONEWEB-0370             
1 49296U 21090T   25220.60001731 -.00000059  00000+0 -17652-3 0  9990
2 49296  87.9300 336.7258 0001545  98.7562 261.3746 13.20771229188601
ONEWEB-0371             
1 49297U 21090U   25220.36977416  .00000050  00000+0  91988-4 0  9990
2 49297  87.9245   7.1499 0001767  92.0116 268.1219 13.19725684185197
ONEWEB-0372             
1 49298U 21090V   25220.58881642  .00000029  00000+0  39140-4 0  9998
2 49298  87.9288 336.7348 0001987  95.9089 264.2271 13.20769884188576
ONEWEB-0373             
1 49299U 21090W   25220.61577930  .00000039  00000+0  64994-4 0  9991
2 49299  87.9295 336.7409 0001876 101.1156 259.0189 13.20772196189767
ONEWEB-0374             
1 49300U 21090X   25220.35076802  .00000196  00000+0  49542-3 0  9992
2 49300  87.9070 351.9536 0002373 105.6324 254.5068 13.14501925186463
