[{"OBJECT_NAME":"ONEWEB-0358","OBJECT_ID":"2021-090F","EPOCH":"2025-08-08T14:35:22.680960","MEAN_MOTION":13.20772436,"ECCENTRICITY":0.0001865,"INCLINATION":87.9299,"RA_OF_ASC_NODE":336.7127,"ARG_OF_PERICENTER":103.6915,"MEAN_ANOMALY":256.4426,"EPHEMERIS_TYPE":0,"CLASSIFICATION_TYPE":"U","NORAD_CAT_ID":49284,"ELEMENT_SET_NO":999,"REV_AT_EPOCH":18929,"BSTAR":-5.239e-5,"MEAN_MOTION_DOT":-8.0e-8,"MEAN_MOTION_DDOT":0},{"OBJECT_NAME":"ONEWEB-0359","OBJECT_ID":"2021-090G","EPOCH":"2025-08-08T14:30:49.660416","MEAN_MOTION":13.20771272,"ECCENTRICITY":0.0001648,"INCLINATION":87.9288,"RA_OF_ASC_NODE":336.7243,"ARG_OF_PERICENTER":108.6791,"MEAN_ANOMALY":251.4521,"EPHEMERIS_TYPE":0,"CLASSIFICATION_TYPE":"U","NORAD_CAT_ID":49285,"ELEMENT_SET_NO":999,"REV_AT_EPOCH":18927,"BSTAR":-6.1415e-6,"MEAN_MOTION_DOT":1.0e-7,"MEAN_MOTION_DDOT":0},{"OBJECT_NAME":"ONEWEB-0360","OBJECT_ID":"2021-090H","EPOCH":"2025-08-08T14:17:10.748256","MEAN_MOTION":13.20770218,"ECCENTRICITY":0.0001735,"INCLINATION":87.9293,"RA_OF_ASC_NODE":336.7344,"ARG_OF_PERICENTER":101.3574,"MEAN_ANOMALY":258.7755,"EPHEMERIS_TYPE":0,"CLASSIFICATION_TYPE":"U","NORAD_CAT_ID":49286,"ELEMENT_SET_NO":999,"REV_AT_EPOCH":18858,"BSTAR":-6.2268e-5,"MEAN_MOTION_DOT":-1.2e-7,"MEAN_MOTION_DDOT":0},{"OBJECT_NAME":"ONEWEB-0361","OBJECT_ID":"2021-090J","EPOCH":"2025-08-08T13:49:55.880544","MEAN_MOTION":13.20771704,"ECCENTRICITY":0.0002035,"INCLINATION":87.9294,"RA_OF_ASC_NODE":336.7329,"ARG_OF_PERICENTER":102.146,"MEAN_ANOMALY":257.9901,"EPHEMERIS_TYPE":0,"CLASSIFICATION_TYPE":"U","NORAD_CAT_ID":49287,"ELEMENT_SET_NO":999,"REV_AT_EPOCH":18903,"BSTAR":0.0003302,"MEAN_MOTION_DOT":1.47e-6,"MEAN_MOTION_DDOT":0},{"OBJECT_NAME":"ONEWEB-0362","OBJECT_ID":"2021-090K","EPOCH":"2025-08-08T08:34:17.528448","MEAN_MOTION":13.19725572,"ECCENTRICITY":0.0001674,"INCLINATION":87.9243,"RA_OF_ASC_NODE":7.177,"ARG_OF_PERICENTER":91.0171,"MEAN_ANOMALY":269.1154,"EPHEMERIS_TYPE":0,"CLASSIFICATION_TYPE":"U","NORAD_CAT_ID":49288,"ELEMENT_SET_NO":999,"REV_AT_EPOCH":18565,"BSTAR":3.2796e-5,"MEAN_MOTION_DOT":2.6e-7,"MEAN_MOTION_DDOT":0},{"OBJECT_NAME":"ONEWEB-0363","OBJECT_ID":"2021-090L","EPOCH":"2025-08-08T14:12:39.828096","MEAN_MOTION":13.20771317,"ECCENTRICITY":0.0002149,"INCLINATION":87.9295,"RA_OF_ASC_NODE":336.7254,"ARG_OF_PERICENTER":107.9062,"MEAN_ANOMALY":252.2306,"EPHEMERIS_TYPE":0,"CLASSIFICATION_TYPE":"U","NORAD_CAT_ID":49289,"ELEMENT_SET_NO":999,"REV_AT_EPOCH":18904,"BSTAR":0.00010708,"MEAN_MOTION_DOT":5.7e-7,"MEAN_MOTION_DDOT":0},{"OBJECT_NAME":"ONEWEB-0364","OBJECT_ID":"2021-090M","EPOCH":"2025-08-08T13:18:05.699232","MEAN_MOTION":13.2077352,"ECCENTRICITY":0.0002033,"INCLINATION":87.9289,"RA_OF_ASC_NODE":336.7617,"ARG_OF_PERICENTER":101.0678,"MEAN_ANOMALY":259.0684,"EPHEMERIS_TYPE":0,"CLASSIFICATION_TYPE":"U","NORAD_CAT_ID":49290,"ELEMENT_SET_NO":999,"REV_AT_EPOCH":19017,"BSTAR":8.2842e-5,"MEAN_MOTION_DOT":4.7e-7,"MEAN_MOTION_DDOT":0},{"OBJECT_NAME":"ONEWEB-0365","OBJECT_ID":"2021-090N","EPOCH":"2025-08-07T21:52:52.716864","MEAN_MOTION":13.19726085,"ECCENTRICITY":0.0001841,"INCLINATION":87.9243,"RA_OF_ASC_NODE":7.2201,"ARG_OF_PERICENTER":91.6495,"MEAN_ANOMALY":268.4848,"EPHEMERIS_TYPE":0,"CLASSIFICATION_TYPE":"U","NORAD_CAT_ID":49291,"ELEMENT_SET_NO":999,"REV_AT_EPOCH":18639,"BSTAR":-3.0419e-5,"MEAN_MOTION_DOT":1.0e-8,"MEAN_MOTION_DDOT":0},{"OBJECT_NAME":"ONEWEB-0366","OBJECT_ID":"2021-090P","EPOCH":"2025-08-08T06:53:43.763712","MEAN_MOTION":13.14504641,"ECCENTRICITY":0.0001845,"INCLINATION":87.9081,"RA_OF_ASC_NODE":351.9874,"ARG_OF_PERICENTER":99.7706,"MEAN_ANOMALY":260.3632,"EPHEMERIS_TYPE":0,"CLASSIFICATION_TYPE":"U","NORAD_CAT_ID":49292,"ELEMENT_SET_NO":999,"REV_AT_EPOCH":18645,"BSTAR":0.00071475,"MEAN_MOTION_DOT":2.78e-6,"MEAN_MOTION_DDOT":0},{"OBJECT_NAME":"ONEWEB-0367","OBJECT_ID":"2021-090Q","EPOCH":"2025-08-08T06:54:01.842048","MEAN_MOTION":13.20771504,"ECCENTRICITY":0.0001772,"INCLINATION":87.9294,"RA_OF_ASC_NODE":336.781,"ARG_OF_PERICENTER":93.2752,"MEAN_ANOMALY":266.8584,"EPHEMERIS_TYPE":0,"CLASSIFICATION_TYPE":"U","NORAD_CAT_ID":49293,"ELEMENT_SET_NO":999,"REV_AT_EPOCH":18852,"BSTAR":4.0307e-5,"MEAN_MOTION_DOT":2.9e-7,"MEAN_MOTION_DDOT":0},{"OBJECT_NAME":"ONEWEB-0368","OBJECT_ID":"2021-090R","EPOCH":"2025-08-08T13:31:43.673088","MEAN_MOTION":13.20771835,"ECCENTRICITY":0.000274,"INCLINATION":87.9299,"RA_OF_ASC_NODE":336.7619,"ARG_OF_PERICENTER":95.33,"MEAN_ANOMALY":264.8146,"EPHEMERIS_TYPE":0,"CLASSIFICATION_TYPE":"U","NORAD_CAT_ID":49294,"ELEMENT_SET_NO":999,"REV_AT_EPOCH":18971,"BSTAR":-1.464e-5,"MEAN_MOTION_DOT":7.0e-8,"MEAN_MOTION_DDOT":0},{"OBJECT_NAME":"ONEWEB-0369","OBJECT_ID":"2021-090S","EPOCH":"2025-08-07T21:46:03.290592","MEAN_MOTION":13.19724846,"ECCENTRICITY":0.0001882,"INCLINATION":87.9245,"RA_OF_ASC_NODE":7.2521,"ARG_OF_PERICENTER":93.188,"MEAN_ANOMALY":266.9468,"EPHEMERIS_TYPE":0,"CLASSIFICATION_TYPE":"U","NORAD_CAT_ID":49295,"ELEMENT_SET_NO":999,"REV_AT_EPOCH":18509,"BSTAR":0.00014552,"MEAN_MOTION_DOT":7.1e-7,"MEAN_MOTION_DDOT":0},{"OBJECT_NAME":"ONEWEB-0370","OBJECT_ID":"2021-090T","EPOCH":"2025-08-08T14:24:01.495584","MEAN_MOTION":13.20771229,"ECCENTRICITY":0.0001545,"INCLINATION":87.93,"RA_OF_ASC_NODE":336.7258,"ARG_OF_PERICENTER":98.7562,"MEAN_ANOMALY":261.3746,"EPHEMERIS_TYPE":0,"CLASSIFICATION_TYPE":"U","NORAD_CAT_ID":49296,"ELEMENT_SET_NO":999,"REV_AT_EPOCH":18860,"BSTAR":-0.00017652,"MEAN_MOTION_DOT":-5.9e-7,"MEAN_MOTION_DDOT":0},{"OBJECT_NAME":"ONEWEB-0371","OBJECT_ID":"2021-090U","EPOCH":"2025-08-08T08:52:28.487424","MEAN_MOTION":13.19725684,"ECCENTRICITY":0.0001767,"INCLINATION":87.9245,"RA_OF_ASC_NODE":7.1499,"ARG_OF_PERICENTER":92.0116,"MEAN_ANOMALY":268.1219,"EPHEMERIS_TYPE":0,"CLASSIFICATION_TYPE":"U","NORAD_CAT_ID":49297,"ELEMENT_SET_NO":999,"REV_AT_EPOCH":18519,"BSTAR":9.1988e-5,"MEAN_MOTION_DOT":5.0e-7,"MEAN_MOTION_DDOT":0},{"OBJECT_NAME":"ONEWEB-0372","OBJECT_ID":"2021-090V","EPOCH":"2025-08-08T14:07:53.738688","MEAN_MOTION":13.20769884,"ECCENTRICITY":0.0001987,"INCLINATION":87.9288,"RA_OF_ASC_NODE":336.7348,"ARG_OF_PERICENTER":95.9089,"MEAN_ANOMALY":264.2271,"EPHEMERIS_TYPE":0,"CLASSIFICATION_TYPE":"U","NORAD_CAT_ID":49298,"ELEMENT_SET_NO":999,"REV_AT_EPOCH":18857,"BSTAR":3.914e-5,"MEAN_MOTION_DOT":2.9e-7,"MEAN_MOTION_DDOT":0},{"OBJECT_NAME":"ONEWEB-0373","OBJECT_ID":"2021-090W","EPOCH":"2025-08-08T14:46:43.331520","MEAN_MOTION":13.20772196,"ECCENTRICITY":0.0001876,"INCLINATION":87.9295,"RA_OF_ASC_NODE":336.7409,"ARG_OF_PERICENTER":101.1156,"MEAN_ANOMALY":259.0189,"EPHEMERIS_TYPE":0,"CLASSIFICATION_TYPE":"U","NORAD_CAT_ID":49299,"ELEMENT_SET_NO":999,"REV_AT_EPOCH":18976,"BSTAR":6.4994e-5,"MEAN_MOTION_DOT":3.9e-7,"MEAN_MOTION_DDOT":0},{"OBJECT_NAME":"ONEWEB-0374","OBJECT_ID":"2021-090X","EPOCH":"2025-08-08T08:25:06.356928","MEAN_MOTION":13.14501925,"ECCENTRICITY":0.0002373,"INCLINATION":87.907,"RA_OF_ASC_NODE":351.9536,"ARG_OF_PERICENTER":105.6324,"MEAN_ANOMALY":254.5068,"EPHEMERIS_TYPE":0,"CLASSIFICATION_TYPE":"U","NORAD_CAT_ID":49300,"ELEMENT_SET_NO":999,"REV_AT_EPOCH":18646,"BSTAR":0.00049542,"MEAN_MOTION_DOT":1.96e-6,"MEAN_MOTION_DDOT":0}]
